XRISM                   
1 57800U 23137A   24175.61106705  .00004918  00000+0  36676-3 0  9993
2 57800  31.0043 331.7226 0009563 273.5624  86.3918 15.01290576 43579
